     2.10           G: GLONASS NAV DATA                     RINEX VERSION / TYPE
teqc  2015Jun23                         20220704 01:25:43UTCPGM / RUN BY / DATE
Linux 2.4.21-27.ELsmp|Opteron|gcc -static|Linux x86_64|=+   COMMENT
  2022     6    23   -8.847564458847D-09                    CORR TO SYSTEM TIME
                                                            END OF HEADER
10 22  6 24 14 15  0.0-8.358620107174D-05-0.000000000000D+00 5.040000000000D+04
   -1.134542871094D+04 2.256813049316D-01-9.313225746155D-10 0.000000000000D+00
    2.274858740234D+04-1.387481689453D-01 2.793967723846D-09-7.000000000000D+00
    1.604650390625D+03 3.561631202698D+00-1.862645149231D-09 0.000000000000D+00
 9 22  6 24 14 15  0.0 6.221607327461D-05 2.728484105319D-12 5.040000000000D+04
   -1.476720166016D+04 9.836511611938D-01 0.000000000000D+00 0.000000000000D+00
    1.325747021484D+04-1.963559150696D+00 9.313225746155D-10-2.000000000000D+00
    1.609397851562D+04 2.515854835510D+00-2.793967723846D-09 0.000000000000D+00
11 22  6 24 14 15  0.0 3.525801002979D-05-9.094947017729D-13 5.040000000000D+04
   -1.300381835938D+03-7.715969085693D-01-1.862645149231D-09 0.000000000000D+00
    2.026416894531D+04 1.974167823792D+00 3.725290298462D-09 0.000000000000D+00
   -1.543610449219D+04 2.652653694153D+00-0.000000000000D+00 0.000000000000D+00
21 22  6 24 14 15  0.0-3.120424225926D-04-2.728484105319D-12 5.040000000000D+04
    4.604052734375D+02-1.373019218445D+00-9.313225746155D-10 0.000000000000D+00
    1.648025830078D+04-2.290921211243D+00 2.793967723846D-09 4.000000000000D+00
   -1.946153222656D+04-1.975594520569D+00 0.000000000000D+00 0.000000000000D+00
 7 22  6 24 14 15  0.0 3.690086305141D-05 9.094947017729D-13 5.112000000000D+04
   -1.092152734375D+04-2.787810325623D+00 0.000000000000D+00 0.000000000000D+00
    1.055583349609D+04 2.828788757324D-01 0.000000000000D+00 5.000000000000D+00
    2.052042724609D+04-1.636563301086D+00-2.793967723846D-09 0.000000000000D+00
23 22  6 24 14 15  0.0-4.539731889963D-05-9.094947017729D-13 5.121000000000D+04
    1.643189013672D+04 1.186325073242D+00-9.313225746155D-10 0.000000000000D+00
    1.406174218750D+04 1.441536903381D+00-0.000000000000D+00 3.000000000000D+00
    1.351082861328D+04-2.939589500427D+00-9.313225746155D-10 0.000000000000D+00
23 22  6 24 14 45  0.0-4.540011286736D-05-9.094947017729D-13 5.220000000000D+04
    1.832692382812D+04 8.741559982300D-01-9.313225746155D-10 0.000000000000D+00
    1.594646972656D+04 6.557378768921D-01 9.313225746155D-10 3.000000000000D+00
    7.765236328125D+03-3.402890205383D+00-9.313225746155D-10 0.000000000000D+00
 7 22  6 24 14 45  0.0 3.690272569656D-05 0.000000000000D+00 5.220000000000D+04
   -1.546784033203D+04-2.224998474121D+00 9.313225746155D-10 0.000000000000D+00
    1.135848095703D+04 5.796365737915D-01 9.313225746155D-10 5.000000000000D+00
    1.682108935547D+04-2.447369575500D+00-2.793967723846D-09 0.000000000000D+00
 9 22  6 24 14 45  0.0 6.222072988749D-05 2.728484105319D-12 5.220000000000D+04
   -1.308591943359D+04 8.477735519409D-01 9.313225746155D-10 0.000000000000D+00
    9.136456054688D+03-2.586408615112D+00 0.000000000000D+00-2.000000000000D+00
    1.994510009766D+04 1.735432624817D+00-2.793967723846D-09 0.000000000000D+00
10 22  6 24 14 45  0.0-8.358713239431D-05-0.000000000000D+00 5.220000000000D+04
   -1.069835546875D+04 4.522399902344D-01-0.000000000000D+00 0.000000000000D+00
    2.173624511719D+04-9.902667999268D-01 1.862645149231D-09-7.000000000000D+00
    7.870075683594D+03 3.354553222656D+00-2.793967723846D-09 0.000000000000D+00
11 22  6 24 14 45  0.0 3.525614738464D-05-9.094947017729D-13 5.220000000000D+04
   -2.214682617188D+03-2.656202316284D-01-9.313225746155D-10 0.000000000000D+00
    2.331043066406D+04 1.371300697327D+00 3.725290298462D-09 0.000000000000D+00
   -1.012626464844D+04 3.208823204041D+00-9.313225746155D-10 0.000000000000D+00
21 22  6 24 14 45  0.0-3.120480105281D-04-2.728484105319D-12 5.220000000000D+04
   -2.547927246094D+03-1.954653739929D+00-9.313225746155D-10 0.000000000000D+00
    1.227161767578D+04-2.336103439331D+00 2.793967723846D-09 4.000000000000D+00
   -2.221935937500D+04-1.068854331970D+00 0.000000000000D+00 0.000000000000D+00
12 22  6 24 14 45  0.0 1.900736242533D-05-0.000000000000D+00 5.370000000000D+04
    7.880359375000D+03-8.869724273682D-01-9.313225746155D-10 0.000000000000D+00
    9.982993164062D+03 2.898509025574D+00 2.793967723846D-09-1.000000000000D+00
   -2.207963232422D+04 9.938240051270D-01 0.000000000000D+00 0.000000000000D+00
23 22  6 24 15 15  0.0-4.540290683508D-05-9.094947017729D-13 5.400000000000D+04
    1.942783789062D+04 3.117866516113D-01-9.313225746155D-10 0.000000000000D+00
    1.646829443359D+04-5.413627624512D-02 1.862645149231D-09 3.000000000000D+00
    1.418864746094D+03-3.602813720703D+00-9.313225746155D-10 0.000000000000D+00
 7 22  6 24 15 15  0.0 3.690365701914D-05 0.000000000000D+00 5.400000000000D+04
   -1.881912500000D+04-1.475784301758D+00 9.313225746155D-10 0.000000000000D+00
    1.251636328125D+04 6.673784255981D-01 9.313225746155D-10 5.000000000000D+00
    1.182293847656D+04-3.070249557495D+00-1.862645149231D-09 0.000000000000D+00
10 22  6 24 15 15  0.0-8.358899503946D-05-0.000000000000D+00 5.400000000000D+04
   -9.867167480469D+03 4.306650161743D-01 0.000000000000D+00 0.000000000000D+00
    1.920387304688D+04-1.808140754700D+00 1.862645149231D-09-7.000000000000D+00
    1.352443212891D+04 2.887146949768D+00-2.793967723846D-09 0.000000000000D+00
11 22  6 24 15 15  0.0 3.525428473949D-05-9.094947017729D-13 5.400000000000D+04
   -2.358519531250D+03 7.162570953369D-02-0.000000000000D+00 0.000000000000D+00
    2.508380322266D+04 5.744209289551D-01 3.725290298462D-09 0.000000000000D+00
   -4.033657226562D+03 3.516781806946D+00-1.862645149231D-09 0.000000000000D+00
12 22  6 24 15 15  0.0 1.900736242533D-05-0.000000000000D+00 5.400000000000D+04
    6.728708496094D+03-3.973560333252D-01-9.313225746155D-10 0.000000000000D+00
    1.501516113281D+04 2.642910003662D+00 3.725290298462D-09-1.000000000000D+00
   -1.945779101562D+04 1.900349617004D+00 0.000000000000D+00 0.000000000000D+00
21 22  6 24 15 15  0.0-3.120526671410D-04-2.728484105319D-12 5.400000000000D+04
   -6.490178710938D+03-2.393350601196D+00-0.000000000000D+00 0.000000000000D+00
    8.237093750000D+03-2.104750633240D+00 2.793967723846D-09 4.000000000000D+00
   -2.326004296875D+04-8.004665374756D-02 9.313225746155D-10 0.000000000000D+00
 8 22  6 24 15 15  0.0-6.585288792849D-05 0.000000000000D+00 5.529000000000D+04
   -3.700486328125D+03-2.820378303528D+00 0.000000000000D+00 0.000000000000D+00
    1.235941503906D+04 1.039343833923D+00 0.000000000000D+00 6.000000000000D+00
    2.205968896484D+04-1.060388565063D+00-2.793967723846D-09 0.000000000000D+00
23 22  6 24 15 45  0.0-4.540570080280D-05-9.094947017729D-13 5.580000000000D+04
    1.933904882812D+04-4.333019256592D-01-9.313225746155D-10 0.000000000000D+00
    1.585796777344D+04-5.878171920776D-01 2.793967723846D-09 3.000000000000D+00
   -5.037271484375D+03-3.524097442627D+00-0.000000000000D+00 0.000000000000D+00
 7 22  6 24 15 45  0.0 3.690458834171D-05 0.000000000000D+00 5.580000000000D+04
   -2.073191455078D+04-6.456689834595D-01 9.313225746155D-10 0.000000000000D+00
    1.361026660156D+04 5.053348541260D-01 9.313225746155D-10 5.000000000000D+00
    5.910562988281D+03-3.456454277039D+00-1.862645149231D-09 0.000000000000D+00
 8 22  6 24 15 45  0.0-6.585195660591D-05 0.000000000000D+00 5.580000000000D+04
   -8.349213867188D+03-2.308739662170D+00 9.313225746155D-10 0.000000000000D+00
    1.446877832031D+04 1.270043373108D+00 0.000000000000D+00 6.000000000000D+00
    1.932726660156D+04-1.956201553345D+00-2.793967723846D-09 0.000000000000D+00
10 22  6 24 15 45  0.0-8.358992636204D-05-0.000000000000D+00 5.580000000000D+04
   -9.282725097656D+03 1.858606338501D-01 9.313225746155D-10 0.000000000000D+00
    1.531489697266D+04-2.480136871338D+00 0.000000000000D+00-7.000000000000D+00
    1.812927490234D+04 2.196109771729D+00-2.793967723846D-09 0.000000000000D+00
11 22  6 24 15 45  0.0 3.525242209435D-05-9.094947017729D-13 5.580000000000D+04
   -2.093962402344D+03 1.817588806152D-01 0.000000000000D+00 0.000000000000D+00
    2.532198046875D+04-3.158769607544D-01 2.793967723846D-09 0.000000000000D+00
    2.370644042969D+03 3.552940368652D+00-1.862645149231D-09 0.000000000000D+00
12 22  6 24 15 45  0.0 1.900643110275D-05-0.000000000000D+00 5.580000000000D+04
    6.401451660156D+03 1.211547851562D-02-0.000000000000D+00 0.000000000000D+00
    1.932895751953D+04 2.107923507690D+00 3.725290298462D-09-1.000000000000D+00
   -1.532710888672D+04 2.659374237061D+00-0.000000000000D+00 0.000000000000D+00
23 22  6 24 16 15  0.0-4.540756344795D-05-9.094947017729D-13 5.760000000000D+04
    1.781833300781D+04-1.260512351990D+00-0.000000000000D+00 0.000000000000D+00
    1.449914941406D+04-8.779888153076D-01 2.793967723846D-09 3.000000000000D+00
   -1.110407666016D+04-3.173073768616D+00-0.000000000000D+00 0.000000000000D+00
 7 22  6 24 16 15  0.0 3.690551966429D-05 0.000000000000D+00 5.760000000000D+04
   -2.116458398438D+04 1.496524810791D-01 1.862645149231D-09 0.000000000000D+00
    1.418698974609D+04 9.717369079590D-02 9.313225746155D-10 5.000000000000D+00
   -4.594726562500D+02-3.575320243835D+00-9.313225746155D-10 0.000000000000D+00
 8 22  6 24 16 15  0.0-6.585195660591D-05 0.000000000000D+00 5.760000000000D+04
   -1.190973339844D+04-1.627545356750D+00 9.313225746155D-10 0.000000000000D+00
    1.678984716797D+04 1.265865325928D+00 0.000000000000D+00 6.000000000000D+00
    1.510725927734D+04-2.702557563782D+00-1.862645149231D-09 0.000000000000D+00
10 22  6 24 16 15  0.0-8.359085768461D-05-0.000000000000D+00 5.760000000000D+04
   -9.293365722656D+03-2.167892456055D-01 9.313225746155D-10 0.000000000000D+00
    1.041831347656D+04-2.915130615234D+00-9.313225746155D-10-7.000000000000D+00
    2.132844970703D+04 1.335547447205D+00-1.862645149231D-09 0.000000000000D+00
